*******************************************************************************
Ephemeris / WWW_USER Mon Mar 24 08:50:34 2025 Pasadena, USA      / Horizons    
*******************************************************************************
Target body name: (2018 PU7)                      {source: JPL#13}
Center body name: Earth (399)                     {source: DE441}
Center-site name: Mauna Kea
*******************************************************************************
Start time      : A.D. 2018-Nov-30 03:51:00.0000 UT      
Stop  time      : A.D. 2018-Nov-30 16:29:00.0000 UT      
Step-size       : 1 minutes
*******************************************************************************
Target pole/equ : undefined
Target radii    : undefined                                                    
Center geodetic : 204.5278, 19.8260847, 4.21024   {E-lon(deg),Lat(deg),Alt(km)}
Center cylindric: 204.5278, 6006.35451, 2151.0229 {E-lon(deg),Dxy(km),Dz(km)}
Center pole/equ : ITRF93                          {East-longitude positive}
Center radii    : 6378.137, 6378.137, 6356.752 km {Equator_a, b, pole_c}       
Target primary  : Sun
Vis. interferer : MOON (R_eq= 1737.400) km        {source: DE441}
Rel. light bend : Sun                             {source: DE441}
Rel. lght bnd GM: 1.3271E+11 km^3/s^2                                          
Small-body perts: Yes                             {source: SB441-N16}
Atmos refraction: NO (AIRLESS)
RA format       : HMS
Time format     : CAL 
Calendar mode   : Mixed Julian/Gregorian
RTS-only print  : NO       
EOP file        : eop.250321.p250617                                           
EOP coverage    : DATA-BASED 1962-JAN-20 TO 2025-MAR-21. PREDICTS-> 2025-JUN-16
Units conversion: 1 au= 149597870.700 km, c= 299792.458 km/s, 1 day= 86400.0 s 
Table cut-offs 1: Elevation (-90.0deg=NO ),Airmass (>38.000=NO), Daylight (YES)
Table cut-offs 2: Solar elongation (  0.0,180.0=NO ),Local Hour Angle( 0.0=NO )
Table cut-offs 3: RA/DEC angular rate (     0.0=NO )                           
*******************************************************************************
Initial IAU76/J2000 heliocentric ecliptic osculating elements (au, days, deg.):
  EPOCH=  2458344.5 ! 2018-Aug-14.00 (TDB)         Residual RMS= .35253        
   EC= .5418411610879256   QR= .9908981152950816   TP= 2458306.0483912583      
   OM= 307.3200871504195   W=  329.2166965634538   IN= 6.906215163822786       
  Equivalent ICRF heliocentric cartesian coordinates (au, au/d):
   X= 8.533350742151261E-01  Y=-6.504796009993946E-01  Z=-2.480927258064065E-01
  VX= 1.615085148536055E-02 VY= 9.661045842052620E-03 VZ= 6.810490395822813E-03
Asteroid physical parameters (km, seconds, rotational period in hours):        
   GM= n.a.                RAD= n.a.               ROTPER= n.a.                
   H= 23.4                 G= .150                 B-V= n.a.                   
                           ALBEDO= n.a.            STYP= n.a.                  
*******************************************************************************
 Date__(UT)__HR:MN     R.A._________(ICRF)_________DEC
******************************************************
$$SOE
 2018-Nov-30 14:06  m  23 29 53.359380 +07 14 59.12310
 2018-Nov-30 14:07  m  23 29 53.420063 +07 14 59.29807
 2018-Nov-30 14:08  m  23 29 53.480753 +07 14 59.47306
 2018-Nov-30 14:09  m  23 29 53.541448 +07 14 59.64806
 2018-Nov-30 14:10  m  23 29 53.602149 +07 14 59.82307
 2018-Nov-30 14:11  m  23 29 53.662857 +07 14 59.99809
 2018-Nov-30 14:12  m  23 29 53.723570 +07 15 00.17313
 2018-Nov-30 14:13  m  23 29 53.784289 +07 15 00.34819
 2018-Nov-30 14:14  m  23 29 53.845014 +07 15 00.52325
 2018-Nov-30 14:15  m  23 29 53.905745 +07 15 00.69833
 2018-Nov-30 14:16  m  23 29 53.966481 +07 15 00.87343
 2018-Nov-30 14:17  m  23 29 54.027224 +07 15 01.04854
 2018-Nov-30 14:18  m  23 29 54.087972 +07 15 01.22366
 2018-Nov-30 14:19  m  23 29 54.148726 +07 15 01.39879
 2018-Nov-30 14:20  m  23 29 54.209485 +07 15 01.57394
 2018-Nov-30 14:21  m  23 29 54.270250 +07 15 01.74910
 2018-Nov-30 14:22  m  23 29 54.331021 +07 15 01.92428
 2018-Nov-30 14:23  m  23 29 54.391798 +07 15 02.09947
 2018-Nov-30 14:24  m  23 29 54.452580 +07 15 02.27468
 2018-Nov-30 14:25  m  23 29 54.513368 +07 15 02.44990
 2018-Nov-30 14:26  m  23 29 54.574161 +07 15 02.62513
 2018-Nov-30 14:27  m  23 29 54.634960 +07 15 02.80038
 2018-Nov-30 14:28  m  23 29 54.695764 +07 15 02.97564
 2018-Nov-30 14:29  m  23 29 54.756574 +07 15 03.15091
 2018-Nov-30 14:30  m  23 29 54.817389 +07 15 03.32620
 2018-Nov-30 14:31  m  23 29 54.878210 +07 15 03.50151
 2018-Nov-30 14:32  m  23 29 54.939036 +07 15 03.67683
 2018-Nov-30 14:33  m  23 29 54.999867 +07 15 03.85216
 2018-Nov-30 14:34  m  23 29 55.060704 +07 15 04.02751
 2018-Nov-30 14:35  m  23 29 55.121546 +07 15 04.20287
 2018-Nov-30 14:36  m  23 29 55.182393 +07 15 04.37825
 2018-Nov-30 14:37  m  23 29 55.243246 +07 15 04.55364
 2018-Nov-30 14:38  m  23 29 55.304103 +07 15 04.72905
 2018-Nov-30 14:39  m  23 29 55.364966 +07 15 04.90447
 2018-Nov-30 14:40  m  23 29 55.425835 +07 15 05.07990
 2018-Nov-30 14:41  m  23 29 55.486708 +07 15 05.25536
 2018-Nov-30 14:42  m  23 29 55.547586 +07 15 05.43082
 2018-Nov-30 14:43  m  23 29 55.608470 +07 15 05.60630
 2018-Nov-30 14:44  m  23 29 55.669359 +07 15 05.78180
 2018-Nov-30 14:45  m  23 29 55.730252 +07 15 05.95731
 2018-Nov-30 14:46  m  23 29 55.791151 +07 15 06.13283
 2018-Nov-30 14:47  m  23 29 55.852055 +07 15 06.30837
 2018-Nov-30 14:48  m  23 29 55.912963 +07 15 06.48393
 2018-Nov-30 14:49  m  23 29 55.973877 +07 15 06.65950
 2018-Nov-30 14:50  m  23 29 56.034795 +07 15 06.83509
 2018-Nov-30 14:51  m  23 29 56.095718 +07 15 07.01069
 2018-Nov-30 14:52  m  23 29 56.156646 +07 15 07.18630
 2018-Nov-30 14:53  m  23 29 56.217579 +07 15 07.36193
 2018-Nov-30 14:54  m  23 29 56.278517 +07 15 07.53758
 2018-Nov-30 14:55  m  23 29 56.339460 +07 15 07.71324
 2018-Nov-30 14:56  m  23 29 56.400407 +07 15 07.88892
 2018-Nov-30 14:57  m  23 29 56.461359 +07 15 08.06461
 2018-Nov-30 14:58  m  23 29 56.522315 +07 15 08.24032
 2018-Nov-30 14:59  m  23 29 56.583276 +07 15 08.41605
 2018-Nov-30 15:00  m  23 29 56.644242 +07 15 08.59179
 2018-Nov-30 15:01  m  23 29 56.705213 +07 15 08.76754
 2018-Nov-30 15:02  m  23 29 56.766188 +07 15 08.94331
 2018-Nov-30 15:03  m  23 29 56.827167 +07 15 09.11910
 2018-Nov-30 15:04  m  23 29 56.888151 +07 15 09.29490
 2018-Nov-30 15:05  m  23 29 56.949139 +07 15 09.47072
 2018-Nov-30 15:06  m  23 29 57.010132 +07 15 09.64655
 2018-Nov-30 15:07  m  23 29 57.071129 +07 15 09.82240
 2018-Nov-30 15:08  m  23 29 57.132131 +07 15 09.99827
 2018-Nov-30 15:09  m  23 29 57.193137 +07 15 10.17415
 2018-Nov-30 15:10  m  23 29 57.254147 +07 15 10.35005
 2018-Nov-30 15:11  m  23 29 57.315162 +07 15 10.52596
 2018-Nov-30 15:12  m  23 29 57.376181 +07 15 10.70189
 2018-Nov-30 15:13  m  23 29 57.437204 +07 15 10.87784
 2018-Nov-30 15:14  m  23 29 57.498231 +07 15 11.05380
 2018-Nov-30 15:15  m  23 29 57.559262 +07 15 11.22978
 2018-Nov-30 15:16  m  23 29 57.620298 +07 15 11.40577
 2018-Nov-30 15:17  m  23 29 57.681337 +07 15 11.58178
 2018-Nov-30 15:18  m  23 29 57.742381 +07 15 11.75780
 2018-Nov-30 15:19  m  23 29 57.803429 +07 15 11.93385
 2018-Nov-30 15:20  m  23 29 57.864480 +07 15 12.10991
 2018-Nov-30 15:21  m  23 29 57.925536 +07 15 12.28598
 2018-Nov-30 15:22  m  23 29 57.986595 +07 15 12.46207
 2018-Nov-30 15:23 Am  23 29 58.047659 +07 15 12.63818
 2018-Nov-30 15:24 Am  23 29 58.108726 +07 15 12.81430
 2018-Nov-30 15:25 Am  23 29 58.169798 +07 15 12.99044
 2018-Nov-30 15:26 Am  23 29 58.230873 +07 15 13.16660
 2018-Nov-30 15:27 Am  23 29 58.291952 +07 15 13.34277
 2018-Nov-30 15:28 Am  23 29 58.353034 +07 15 13.51896
 2018-Nov-30 15:29 Am  23 29 58.414121 +07 15 13.69517
 2018-Nov-30 15:30 Am  23 29 58.475211 +07 15 13.87139
 2018-Nov-30 15:31 Am  23 29 58.536304 +07 15 14.04763
 2018-Nov-30 15:32 Am  23 29 58.597402 +07 15 14.22389
 2018-Nov-30 15:33 Am  23 29 58.658503 +07 15 14.40016
 2018-Nov-30 15:34 Am  23 29 58.719607 +07 15 14.57645
 2018-Nov-30 15:35 Am  23 29 58.780715 +07 15 14.75275
 2018-Nov-30 15:36 Am  23 29 58.841827 +07 15 14.92908
 2018-Nov-30 15:37 Am  23 29 58.902942 +07 15 15.10542
 2018-Nov-30 15:38 Am  23 29 58.964060 +07 15 15.28177
 2018-Nov-30 15:39 Am  23 29 59.025182 +07 15 15.45815
 2018-Nov-30 15:40 Am  23 29 59.086307 +07 15 15.63454
 2018-Nov-30 15:41 Am  23 29 59.147436 +07 15 15.81094
 2018-Nov-30 15:42 Am  23 29 59.208568 +07 15 15.98737
 2018-Nov-30 15:43 Am  23 29 59.269703 +07 15 16.16381
 2018-Nov-30 15:44 Am  23 29 59.330841 +07 15 16.34027
 2018-Nov-30 15:45 Am  23 29 59.391983 +07 15 16.51674
 2018-Nov-30 15:46 Am  23 29 59.453128 +07 15 16.69323
 2018-Nov-30 15:47 Am  23 29 59.514275 +07 15 16.86974
 2018-Nov-30 15:48 Am  23 29 59.575427 +07 15 17.04627
 2018-Nov-30 15:49 Nm  23 29 59.636581 +07 15 17.22281
 2018-Nov-30 15:50 Nm  23 29 59.697738 +07 15 17.39937
 2018-Nov-30 15:51 Nm  23 29 59.758898 +07 15 17.57595
 2018-Nov-30 15:52 Nm  23 29 59.820061 +07 15 17.75254
 2018-Nov-30 15:53 Nm  23 29 59.881227 +07 15 17.92915
 2018-Nov-30 15:54 Nm  23 29 59.942396 +07 15 18.10578
 2018-Nov-30 15:55 Nm  23 30 00.003568 +07 15 18.28243
 2018-Nov-30 15:56 Nm  23 30 00.064743 +07 15 18.45909
 2018-Nov-30 15:57 Nm  23 30 00.125921 +07 15 18.63577
 2018-Nov-30 15:58 Nm  23 30 00.187101 +07 15 18.81247
 2018-Nov-30 15:59 Nm  23 30 00.248284 +07 15 18.98919
 2018-Nov-30 16:00 Nm  23 30 00.309470 +07 15 19.16592
 2018-Nov-30 16:01 Nm  23 30 00.370659 +07 15 19.34267
 2018-Nov-30 16:02 Nm  23 30 00.431850 +07 15 19.51944
 2018-Nov-30 16:03 Nm  23 30 00.493044 +07 15 19.69622
 2018-Nov-30 16:04 Nm  23 30 00.554240 +07 15 19.87302
 2018-Nov-30 16:05 Nm  23 30 00.615439 +07 15 20.04984
 2018-Nov-30 16:06 Nm  23 30 00.676640 +07 15 20.22668
 2018-Nov-30 16:07 Nm  23 30 00.737844 +07 15 20.40353
 2018-Nov-30 16:08 Nm  23 30 00.799051 +07 15 20.58041
